#aV2007  4  2  0  0   .00000000      96 DD+AD WGS84 FIT  NGA
## 1421  86400.00000000   900.00000000 54192  .0000000000000
+   30     1  2  3  4  5  6  7  8  9 10 11 12 13 14 16 17 18
+         19 20 21 22 23 24 25 26 27 28 29 30 31  0  0  0  0
+          0  0  0  0  0  0  0  0  0  0  0  0  0  0  0  0  0
+          0  0  0  0  0  0  0  0  0  0  0  0  0  0  0  0  0
+          0  0  0  0  0  0  0  0  0  0  0  0  0  0  0  0  0
++         0  0  0  0  0  0  0  0  0  0  0  0  0  0  0  0  0
++         0  0  0  0  0  0  0  0  0  0  0  0  0  0  0  0  0
++         0  0  0  0  0  0  0  0  0  0  0  0  0  0  0  0  0
++         0  0  0  0  0  0  0  0  0  0  0  0  0  0  0  0  0
++         0  0  0  0  0  0  0  0  0  0  0  0  0  0  0  0  0
%c cc cc ccc ccc cccc cccc cccc cccc ccccc ccccc ccccc ccccc
%c cc cc ccc ccc cccc cccc cccc cccc ccccc ccccc ccccc ccccc
%f  0.0000000  0.000000000  0.00000000000  0.000000000000000
%f  0.0000000  0.000000000  0.00000000000  0.000000000000000
%i    0    0    0    0      0      0      0      0         0
%i    0    0    0    0      0      0      0      0         0
/*      NGA, ST. LOUIS,MO.                                  
/*   EPHEMERIS COMPUTED FROM  3 DAYS OF DATA                
/* CCCCCCCCCCCCCCCCCCCCCCCCCCCCCCCCCCCCCCCCCCCCCCCCCCCCCCCCC
/* CCCCCCCCCCCCCCCCCCCCCCCCCCCCCCCCCCCCCCCCCCCCCCCCCCCCCCCCC
*  2007  4  2  5  0   .00000000                                                 
P  1  14041.409163 -19461.120338 -11111.362417    117.610396                    
V  1  -2847.287067  14222.110254 -28050.394158       .025223                    
P  2 -19330.508080  13698.361463  11500.177364     95.435661                    
V  2 -15345.734429    952.530594 -26678.182101       .032124                    
P  3  10726.059116 -22299.123265   8988.409948     36.546887                    
V  3   1754.931875  12341.158574  28220.399816       .054953                    
P  4 -26079.368120   5982.339423   -544.755858      9.521605                    
V  4   -116.830291  -3024.302522 -31182.468459       .008432                    
P  5  12227.913202  21057.290058 -11023.435067     39.226061                    
V  5 -12209.826222  -6712.349402 -26781.065098      -.043541                    
P  6   8484.542896  18707.023400  17001.527072    120.447489                    
V  6  -7072.736410  20247.439088 -19006.044856       .198186                    
P  7  11654.549250  14264.106350  19454.133632    361.548509                    
V  7  -6446.427308  23259.713937 -13506.503188      -.147324                    
P  8 -24833.888738  -1480.932926   9785.331352   -102.182962                    
V  8  11796.282804  -4300.930141  28520.035548      -.013957                    
P  9  -1443.982175  16090.595935 -21632.948097     64.225675                    
V  9 -25205.379534   6937.715910   7262.221461       .016109                    
P 10  -8299.652786  12802.420307  21594.780217     99.699098                    
V 10 -19326.047373 -19854.582199   4636.521789       .006342                    
P 11  -1926.178171 -17034.850988 -20352.143330     12.062203                    
V 11  24147.968259  -9591.108988   6065.500032       .011317                    
P 12   9024.072869  21570.231731 -12537.231598    -44.022640                    
V 12 -12935.055526  -9818.181076 -25922.327307       .001664                    
P 13  -8476.076791 -15645.055870  19637.318846    159.051792                    
V 13   8257.687049 -23663.811312 -15167.016174       .037061                    
P 14  15648.742182  -4288.546540 -20932.139595     14.097141                    
V 14  -6951.054557  25794.740513 -10505.980350       .015834                    
P 16  13402.669134  -7790.411592  21665.307227    136.191350                    
V 16  18665.349094  19902.264892  -4268.910151       .033122                    
P 17 -15937.698210   2095.839992 -21114.696651     73.146985                    
V 17   6573.555479 -26047.018903  -7667.329093      -.013669                    
P 18  20293.317770  16412.459090  -5660.922839   -252.304754                    
V 18   2909.099151   7214.072242  30295.827439       .005170                    
P 19   7815.322092 -25288.110410  -1257.474036     20.688170                    
V 19   3391.845185   -646.321713  31713.444922       .037729                    
P 20 -10027.128206 -21691.385989 -11739.003306    -23.332071                    
V 20  12246.142089   8598.902950 -26537.670287      -.003177                    
P 21  20537.372406   7146.588826  15726.907465     74.636309                    
V 21 -18696.698158   6258.491153  21150.165383       .007108                    
P 22  20620.529387   6917.986111 -15108.511630    174.798972                    
V 22  11282.287837  16027.330241  22486.715140       .017567                    
P 23  -2091.265555 -23427.060896  12063.945090    157.663636                    
V 23   6300.884783 -14342.109726 -26768.817882       .021470                    
P 24   7448.129328  13957.619874  21506.653549     89.545208                    
V 24 -26202.519470   6022.930945   5507.470449       .028747                    
P 25   7552.876062 -17170.169749  19284.132165    261.110560                    
V 25  22568.061838  -6941.064315 -15172.133303      -.252470                    
P 26  -8106.055876  24940.031283    443.903894   -119.756835                    
V 26  -1872.439430  -1732.125647  32833.839247      -.196124                    
P 27 -19078.955525  -6881.265922  17922.672800    102.675710                    
V 27  19928.945604  -7885.903922  18631.295097       .021145                    
P 28 -21309.143956 -10600.058309 -11814.661583      4.101563                    
V 28  -8953.672144 -12708.769090  26460.014161      -.008908                    
P 29 -10480.954592  23510.018246   5914.434770      1.159900                    
V 29   -112.672914  -7587.499268  31432.435137       .004924                    
P 30  17443.622911  19863.470021  -3448.237612     29.856515                    
V 30  -5063.191295   -468.066565 -30941.937562       .010921                    
P 31  25415.362459  -7747.507089   1401.280501     18.268365                    
V 31   2183.276447   2249.658940 -31659.204003       .013672                    
EOF
